#Pass ID: 20260119_230047_AQUA
#Satellite: AQUA
#Configuration: AQUA
#almurnet v.1.7.20240730
#Start time: 2026-01-19 23:04:15

#Version: 2.2.20231116
#Station: R3.0SM8_Murmansk_STILSPACE
#Location: 33.092731 lon 68.902999 lat
#TLE: 1 27424U 02022A   26019.27629806  .00001032  00000+0  21655-3 0  9990
#TLE: 2 27424  98.4090 345.7756 0001997  73.0764  31.8912 14.61830109261513

#Time	Az	El	Level	Level2	SNR	BER	BlckErr	Temp	State	Recorded	gain1	gain2
#2026-01-19 23:04:15.982000	device inactive

#Closed at: 2026-01-19 23:04:16
#Recorded file [0 MB]: 